{"type": "FeatureCollection", "features": [ {"type": "Feature", "properties": {"norad_id": 41556, "name": "ZIYUAN 3-02 (ZY 3-02)", "group": "resource", "lat": 44.756054273092005, "lon": -103.40079498099523, "alt_km": 497.23802028848786, "timestamp": "2025-12-21T03:56:50.511900+00:00", "meta": {"OBJECT_NAME": "ZIYUAN 3-02 (ZY 3-02)", "OBJECT_ID": "2016-033A", "EPOCH": "2025-12-20T21:02:29.000256", "MEAN_MOTION": 15.21160949, "ECCENTRICITY": 0.0011076, "INCLINATION": 97.4037, "RA_OF_ASC_NODE": 68.9085, "ARG_OF_PERICENTER": 215.6883, "MEAN_ANOMALY": 144.3613, "EPHEMERIS_TYPE": 0, "CLASSIFICATION_TYPE": "U", "NORAD_CAT_ID": 41556, "ELEMENT_SET_NO": 999, "REV_AT_EPOCH": 53087, "BSTAR": 0.00021626, "MEAN_MOTION_DOT": 4.756e-05, "MEAN_MOTION_DDOT": 0}, "tle": {"line1": "1 41556U 16033A   25354.87672454  .00004756  00000+0  21626-3 0  9997", "line2": "2 41556  97.4037  68.9085 0011076 215.6883 144.3613 15.21160949530870"}}, "geometry": {"type": "Point", "coordinates": [-103.40079498099523, 44.756054273092005]}}, {"type": "Feature", "properties": {"norad_id": 41599, "name": "CARTOSAT-2C", "group": "resource", "lat": 15.309847300064588, "lon": 50.267984308018484, "alt_km": 502.0758933491361, "timestamp": "2025-12-21T03:56:50.511910+00:00", "meta": {"OBJECT_NAME": "CARTOSAT-2C", "OBJECT_ID": "2016-040A", "EPOCH": "2025-12-20T21:33:23.368032", "MEAN_MOTION": 15.19179838, "ECCENTRICITY": 0.0011078, "INCLINATION": 97.4759, "RA_OF_ASC_NODE": 52.0646, "ARG_OF_PERICENTER": 37.4054, "MEAN_ANOMALY": 322.795, "EPHEMERIS_TYPE": 0, "CLASSIFICATION_TYPE": "U", "NORAD_CAT_ID": 41599, "ELEMENT_SET_NO": 999, "REV_AT_EPOCH": 52664, "BSTAR": 8.0733e-05, "MEAN_MOTION_DOT": 1.631e-05, "MEAN_MOTION_DDOT": 0}, "tle": {"line1": "1 41599U 16040A   25354.89818713  .00001631  00000+0  80733-4 0  9998", "line2": "2 41599  97.4759  52.0646 0011078  37.4054 322.7950 15.19179838526647"}}, "geometry": {"type": "Point", "coordinates": [50.267984308018484, 15.309847300064588]}}, {"type": "Feature", "properties": {"norad_id": 41601, "name": "SKYSAT-C1", "group": "resource", "lat": 61.23042353157477, "lon": -135.40106180014115, "alt_km": 462.4637545806636, "timestamp": "2025-12-21T03:56:50.511918+00:00", "meta": {"OBJECT_NAME": "SKYSAT-C1", "OBJECT_ID": "2016-040C", "EPOCH": "2025-12-20T13:19:58.535040", "MEAN_MOTION": 15.32720909, "ECCENTRICITY": 0.000147, "INCLINATION": 96.9811, "RA_OF_ASC_NODE": 31.1288, "ARG_OF_PERICENTER": 346.7095, "MEAN_ANOMALY": 13.4109, "EPHEMERIS_TYPE": 0, "CLASSIFICATION_TYPE": "U", "NORAD_CAT_ID": 41601, "ELEMENT_SET_NO": 999, "REV_AT_EPOCH": 53047, "BSTAR": 0.00018789, "MEAN_MOTION_DOT": 5.865e-05, "MEAN_MOTION_DDOT": 0}, "tle": {"line1": "1 41601U 16040C   25354.55553860  .00005865  00000+0  18789-3 0  9998", "line2": "2 41601  96.9811  31.1288 0001470 346.7095  13.4109 15.32720909530472"}}, "geometry": {"type": "Point", "coordinates": [-135.40106180014115, 61.23042353157477]}}, {"type": "Feature", "properties": {"norad_id": 41603, "name": "LAPAN-A3", "group": "resource", "lat": -48.533751653609315, "lon": 164.2563352817569, "alt_km": 475.90615399852595, "timestamp": "2025-12-21T03:56:50.511928+00:00", "meta": {"OBJECT_NAME": "LAPAN-A3", "OBJECT_ID": "2016-040E", "EPOCH": "2025-12-20T20:40:40.434240", "MEAN_MOTION": 15.3161154, "ECCENTRICITY": 0.0008911, "INCLINATION": 97.1424, "RA_OF_ASC_NODE": 352.1224, "ARG_OF_PERICENTER": 300.8487, "MEAN_ANOMALY": 59.1878, "EPHEMERIS_TYPE": 0, "CLASSIFICATION_TYPE": "U", "NORAD_CAT_ID": 41603, "ELEMENT_SET_NO": 999, "REV_AT_EPOCH": 52750, "BSTAR": 9.5617e-05, "MEAN_MOTION_DOT": 2.847e-05, "MEAN_MOTION_DDOT": 0}, "tle": {"line1": "1 41603U 16040E   25354.86157910  .00002847  00000+0  95617-4 0  9993", "line2": "2 41603  97.1424 352.1224 0008911 300.8487  59.1878 15.31611540527505"}}, "geometry": {"type": "Point", "coordinates": [164.2563352817569, -48.533751653609315]}}, {"type": "Feature", "properties": {"norad_id": 41604, "name": "BIROS", "group": "resource", "lat": 60.62360827560497, "lon": 14.218916583972865, "alt_km": 287.6419762709511, "timestamp": "2025-12-21T03:56:50.511937+00:00", "meta": {"OBJECT_NAME": "BIROS", "OBJECT_ID": "2016-040F", "EPOCH": "2025-12-20T12:36:42.537312", "MEAN_MOTION": 15.92640057, "ECCENTRICITY": 0.0003516, "INCLINATION": 97.0689, "RA_OF_ASC_NODE": 26.2866, "ARG_OF_PERICENTER": 133.472, "MEAN_ANOMALY": 226.6848, "EPHEMERIS_TYPE": 0, "CLASSIFICATION_TYPE": "U", "NORAD_CAT_ID": 41604, "ELEMENT_SET_NO": 999, "REV_AT_EPOCH": 52996, "BSTAR": 0.00051898, "MEAN_MOTION_DOT": 0.00176018, "MEAN_MOTION_DDOT": 1.3507e-05}, "tle": {"line1": "1 41604U 16040F   25354.52549233  .00176018  13507-4  51898-3 0  9995", "line2": "2 41604  97.0689  26.2866 0003516 133.4720 226.6848 15.92640057529967"}}, "geometry": {"type": "Point", "coordinates": [14.218916583972865, 60.62360827560497]}}, {"type": "Feature", "properties": {"norad_id": 41727, "name": "GAOFEN-3", "group": "resource", "lat": -0.6864368582796, "lon": -179.47928681115954, "alt_km": 754.7257533300399, "timestamp": "2025-12-21T03:56:50.511946+00:00", "meta": {"OBJECT_NAME": "GAOFEN-3", "OBJECT_ID": "2016-049A", "EPOCH": "2025-12-20T20:27:09.128736", "MEAN_MOTION": 14.42214865, "ECCENTRICITY": 0.0001239, "INCLINATION": 98.4031, "RA_OF_ASC_NODE": 0.3147, "ARG_OF_PERICENTER": 57.6749, "MEAN_ANOMALY": 302.4561, "EPHEMERIS_TYPE": 0, "CLASSIFICATION_TYPE": "U", "NORAD_CAT_ID": 41727, "ELEMENT_SET_NO": 999, "REV_AT_EPOCH": 49294, "BSTAR": -2.7598e-05, "MEAN_MOTION_DOT": -1.34e-06, "MEAN_MOTION_DDOT": 0}, "tle": {"line1": "1 41727U 16049A   25354.85218899 -.00000134  00000+0 -27598-4 0  9994", "line2": "2 41727  98.4031   0.3147 0001239  57.6749 302.4561 14.42214865492942"}}, "geometry": {"type": "Point", "coordinates": [-179.47928681115954, -0.6864368582796]}}, {"type": "Feature", "properties": {"norad_id": 41771, "name": "SKYSAT-C4", "group": "resource", "lat": -13.113708186534367, "lon": 21.568503086833303, "alt_km": 444.60296539127194, "timestamp": "2025-12-21T03:56:50.511956+00:00", "meta": {"OBJECT_NAME": "SKYSAT-C4", "OBJECT_ID": "2016-058B", "EPOCH": "2025-12-20T12:26:05.053920", "MEAN_MOTION": 15.42456678, "ECCENTRICITY": 0.0002175, "INCLINATION": 96.936, "RA_OF_ASC_NODE": 19.3283, "ARG_OF_PERICENTER": 127.8827, "MEAN_ANOMALY": 232.2618, "EPHEMERIS_TYPE": 0, "CLASSIFICATION_TYPE": "U", "NORAD_CAT_ID": 41771, "ELEMENT_SET_NO": 999, "REV_AT_EPOCH": 51787, "BSTAR": 0.00023302, "MEAN_MOTION_DOT": 0.00010007, "MEAN_MOTION_DDOT": 0}, "tle": {"line1": "1 41771U 16058B   25354.51811405  .00010007  00000+0  23302-3 0  9994", "line2": "2 41771  96.9360  19.3283 0002175 127.8827 232.2618 15.42456678517871"}}, "geometry": {"type": "Point", "coordinates": [21.568503086833303, -13.113708186534367]}}, {"type": "Feature", "properties": {"norad_id": 41772, "name": "SKYSAT-C5", "group": "resource", "lat": 10.934005222406393, "lon": 37.18973845990536, "alt_km": 466.6913239809319, "timestamp": "2025-12-21T03:56:50.511965+00:00", "meta": {"OBJECT_NAME": "SKYSAT-C5", "OBJECT_ID": "2016-058C", "EPOCH": "2025-12-20T16:56:26.241792", "MEAN_MOTION": 15.34007907, "ECCENTRICITY": 0.0003793, "INCLINATION": 97.0746, "RA_OF_ASC_NODE": 38.1251, "ARG_OF_PERICENTER": 253.8673, "MEAN_ANOMALY": 106.2153, "EPHEMERIS_TYPE": 0, "CLASSIFICATION_TYPE": "U", "NORAD_CAT_ID": 41772, "ELEMENT_SET_NO": 999, "REV_AT_EPOCH": 51638, "BSTAR": 0.000182, "MEAN_MOTION_DOT": 5.914e-05, "MEAN_MOTION_DDOT": 0}, "tle": {"line1": "1 41772U 16058C   25354.70585928  .00005914  00000+0  18200-3 0  9996", "line2": "2 41772  97.0746  38.1251 0003793 253.8673 106.2153 15.34007907516389"}}, "geometry": {"type": "Point", "coordinates": [37.18973845990536, 10.934005222406393]}}, {"type": "Feature", "properties": {"norad_id": 41773, "name": "SKYSAT-C2", "group": "resource", "lat": 58.98241814043406, "lon": -148.81368963996923, "alt_km": 448.78846846596844, "timestamp": "2025-12-21T03:56:50.511979+00:00", "meta": {"OBJECT_NAME": "SKYSAT-C2", "OBJECT_ID": "2016-058D", "EPOCH": "2025-12-20T19:36:58.060224", "MEAN_MOTION": 15.37438563, "ECCENTRICITY": 0.0003329, "INCLINATION": 97.0349, "RA_OF_ASC_NODE": 19.0021, "ARG_OF_PERICENTER": 11.7466, "MEAN_ANOMALY": 348.3857, "EPHEMERIS_TYPE": 0, "CLASSIFICATION_TYPE": "U", "NORAD_CAT_ID": 41773, "ELEMENT_SET_NO": 999, "REV_AT_EPOCH": 51760, "BSTAR": 0.00021467, "MEAN_MOTION_DOT": 7.805e-05, "MEAN_MOTION_DDOT": 0}, "tle": {"line1": "1 41773U 16058D   25354.81733866  .00007805  00000+0  21467-3 0  9995", "line2": "2 41773  97.0349  19.0021 0003329  11.7466 348.3857 15.37438563517603"}}, "geometry": {"type": "Point", "coordinates": [-148.81368963996923, 58.98241814043406]}}, {"type": "Feature", "properties": {"norad_id": 41774, "name": "SKYSAT-C3", "group": "resource", "lat": 13.603731890711565, "lon": -149.79442060923637, "alt_km": 432.9059474669675, "timestamp": "2025-12-21T03:56:50.511988+00:00", "meta": {"OBJECT_NAME": "SKYSAT-C3", "OBJECT_ID": "2016-058E", "EPOCH": "2025-12-20T08:34:23.687904", "MEAN_MOTION": 15.44652608, "ECCENTRICITY": 0.0001932, "INCLINATION": 96.9286, "RA_OF_ASC_NODE": 27.7493, "ARG_OF_PERICENTER": 107.595, "MEAN_ANOMALY": 252.5511, "EPHEMERIS_TYPE": 0, "CLASSIFICATION_TYPE": "U", "NORAD_CAT_ID": 41774, "ELEMENT_SET_NO": 999, "REV_AT_EPOCH": 51843, "BSTAR": 0.0002841356, "MEAN_MOTION_DOT": 0.00013163, "MEAN_MOTION_DDOT": 0}, "tle": {"line1": "1 41774U 16058E   25354.35721861  .00013163  00000+0  28414-3 0  9990", "line2": "2 41774  96.9286  27.7493 0001932 107.5950 252.5511 15.44652608518432"}}, "geometry": {"type": "Point", "coordinates": [-149.79442060923637, 13.603731890711565]}}]}